PAZ                     
1 43215U 18020A   26068.97523369  .00002598  00000+0  12685-3 0  9990
2 43215  97.4464  77.7719 0001694  90.6952 269.4477 15.19156042445949
HJ-2E                   
1 54035U 22132A   26068.98294056  .00011016  00000+0  49906-3 0  9991
2 54035  97.3835  75.2449 0020825   2.2489 357.8836 15.20837982189336
